PERSEUS-M1              
1 40039U 14033AF  26141.27427354  .00001042  00000+0  99392-4 0  9997
2 40039  97.9636  84.9689 0012546  33.4876 326.7135 14.95531145646619
POLYITAN-1              
1 40042U 14033AJ  26141.48176306  .00012393  00000+0  40079-3 0  9990
2 40042  98.0963 165.2371 0005914 228.6058 131.4674 15.32223174649502
TIGRISAT                
1 40043U 14033AK  26141.36718257  .00001425  00000+0  16970-3 0  9992
2 40043  97.7802 292.0012 0049943 161.1451 199.1628 14.85031228641641
AEROCUBE 6A             
1 40045U 14033AM  26141.43734138  .00003456  00000+0  29471-3 0  9994
2 40045  97.7226 308.6815 0039934 104.5559 256.0098 14.97774512642612
AEROCUBE 6B             
1 40046U 14033AN  26141.19858742  .00004553  00000+0  37296-3 0  9999
2 40046  97.7184 308.1780 0038768  98.5412 262.0207 14.99198163642710
CANX-4                  
1 40055U 14034C   26141.13117201  .00000542  00000+0  76875-4 0  9993
2 40055  98.3155  15.4472 0014140  97.2952 262.9867 14.81207409640527
CANX-5                  
1 40056U 14034D   26141.46767975  .00000564  00000+0  79720-4 0  9995
2 40056  98.3158  15.8381 0014131  96.4887 263.7934 14.81225039631389
UKUBE-1                 
1 40074U 14037F   26141.45538329  .00005489  00000+0  31473-3 0  9999
2 40074  98.4247 141.9303 0000625 139.0150 221.1125 15.13063709644513
BRITE-PL2 (HEWELIUSZ)   
1 40119U 14049B   26141.52560828  .00001583  00000+0  15195-3 0  9993
2 40119  97.9071 253.3266 0013791 192.2030 167.8857 14.94478729637468
AEROCUBE 5C             
1 40965U 15058B   26141.75065462  .00002080  00000+0  19249-3 0  9999
2 40965  64.7681 344.8238 0129993  73.6790 287.8572 14.91286846361711
AEROCUBE 7              
1 40966U 15058C   26141.75516087  .00003024  00000+0  25004-3 0  9999
2 40966  64.7627 327.5936 0119755  72.3182 289.0964 14.95499725362009
FOX-1A (AO-85)          
1 40967U 15058D   26141.72253285  .00002149  00000+0  20124-3 0  9990
2 40967  64.7762   1.2181 0129305  66.9853 294.4835 14.90796223109626
SINOD-D 1               
1 40968U 15058E   26141.73626725  .00002982  00000+0  24670-3 0  9990
2 40968  64.7764 341.7333 0117826  63.7043 297.6119 14.95677920112701
SNAP-3 ALICE            
1 40970U 15058G   26141.51887635  .00055808  00000+0  82382-3 0  9997
2 40970  64.7512 195.6903 0033420  25.5487 334.7299 15.54370820112739
LMRST-SAT               
1 40971U 15058H   26141.73824947  .00002174  00000+0  20451-3 0  9996
2 40971  64.7768 357.4574 0131059  68.9948 292.5126 14.90422064109615
SNAP-3 EDDIE            
1 40972U 15058J   26141.52936795  .00053049  00000+0  75061-3 0  9993
2 40972  64.7429 186.5707 0033753  29.3335 330.9693 15.55521247114877
PROPCUBE 3              
1 40973U 15058K   26141.70462848  .00002579  00000+0  22205-3 0  9991
2 40973  64.7692 335.2658 0123160  70.4786 290.9581 14.94058276110840
BISONSAT                
1 40974U 15058L   26141.71051529  .00007411  00000+0  36925-3 0  9997
2 40974  64.7598 259.2032 0078465  58.4089 302.4663 15.15600373111606
SNAP-3 JIMI             
1 40975U 15058M   26141.75898272  .00004054  00000+0  28638-3 0  9998
2 40975  64.7655 303.3711 0105175  66.3344 294.8769 15.02002028110257
PROPCUBE 1 (FLORA)      
1 40976U 15058N   26141.73600966  .00002018  00000+0  19837-3 0  9997
2 40976  64.7759  17.2059 0129853  71.2842 290.2311 14.89052663112323
SINOD-D 3               
1 40977U 15058P   26141.73181593  .00002822  00000+0  24595-3 0  9998
2 40977  64.7735 358.4185 0118335  68.7147 292.6553 14.93790689110807
HORYU-4                 
1 41340U 16012D   26141.39941902  .00152227  00000+0  75460-3 0  9996
2 41340  30.9883 273.2630 0004037  95.4050 264.7068 15.80437185566557
RAVAN                   
1 41849U 16067B   26141.63153611  .00030701  00000+0  51091-3 0  9995
2 41849  97.9920  28.1899 0007115  97.1288 263.0771 15.51970526523579
CELTEE 1                
1 41850U 16067C   26141.40580127  .00003341  00000+0  16163-3 0  9999
2 41850  98.0703   6.1473 0001371  54.8630 305.2731 15.19382960521818
OPTICUBE 04             
1 41851U 16067D   26141.56549514  .00001152  00000+0  76156-4 0  9999
2 41851  98.0724 352.4590 0015021 203.1082 156.9471 15.09530313521151
AEROCUBE 8D             
1 41852U 16067E   26141.56736455  .00005062  00000+0  21253-3 0  9993
2 41852  98.0713   9.7173 0002551 202.6137 157.4986 15.23975180522012
AEROCUBE 8C             
1 41853U 16067F   26141.20272165  .00004964  00000+0  20692-3 0  9994
2 41853  98.0585   6.5880 0006188 141.8657 218.3018 15.24211253521951
CORVUS BC2              
1 42846U 17042X   26141.42185681  .00001651  00000+0  11690-3 0  9999
2 42846  97.4041 303.8205 0012673 197.0527 163.0277 15.06096869483036
CORVUS BC1              
1 42847U 17042Y   26141.41951034  .00001893  00000+0  13283-3 0  9990
2 42847  97.4072 304.6146 0012120 173.2390 186.9003 15.06267692483063
MAKERSAT 0              
1 43016U 17073D   26141.13093424  .00017330  00000+0  48303-3 0  9996
2 43016  97.4655  23.4574 0110118  10.4350 349.9139 15.30862288462320
